OBJECT_NAME,OBJECT_ID,EPOCH,MEAN_MOTION,ECCENTRICITY,INCLINATION,RA_OF_ASC_NODE,ARG_OF_PERICENTER,MEAN_ANOMALY,EPHEMERIS_TYPE,CLASSIFICATION_TYPE,NORAD_CAT_ID,ELEMENT_SET_NO,REV_AT_EPOCH,BSTAR,MEAN_MOTION_DOT,MEAN_MOTION_DDOT
ONEWEB-0275,2021-060AC,2026-06-16T03:58:17.186016,13.16594779,.00019273,87.9099,228.9785,96.0299,264.1051,0,U,48993,999,23942,.49302744E-3,.201E-5,0
ONEWEB-0276,2021-060AD,2026-06-16T04:46:09.335424,13.16594780,.00019669,87.9096,228.9713,93.0320,267.1036,0,U,48994,999,23944,-.78894254E-4,-.17E-6,0
ONEWEB-0277,2021-060AE,2026-06-16T05:04:24.488256,13.16593829,.00019017,87.9090,228.9777,101.3530,258.7815,0,U,48995,999,23943,.14513351E-3,.68E-6,0
ONEWEB-0278,2021-060AF,2026-06-16T04:50:41.451360,13.16592982,.00022704,87.9099,228.9696,100.3504,259.7883,0,U,48996,999,23956,.3114609E-5,.14E-6,0
ONEWEB-0279,2021-060AG,2026-06-16T05:02:07.131264,13.16594742,.00017894,87.9097,228.9664,97.1474,262.9860,0,U,48997,999,23949,.48336665E-4,.31E-6,0
ONEWEB-0280,2021-060AH,2026-06-16T05:23:46.201920,13.16593375,.00021162,87.9096,228.9677,107.8108,252.3254,0,U,48998,999,23943,.1896385E-3,.85E-6,0
ONEWEB-0281,2021-060AJ,2026-06-16T05:31:45.498144,13.16594832,.00020948,87.9099,228.9617,98.6810,261.4558,0,U,48999,999,23950,.27222977E-3,.117E-5,0
ONEWEB-0282,2021-060AK,2026-06-16T04:25:36.970752,13.16592802,.00019688,87.9098,228.9792,101.4228,258.7124,0,U,49000,999,23947,.96973428E-4,.5E-6,0
ONEWEB-0283,2021-060AL,2026-06-16T04:09:40.578048,13.16594492,.00018569,87.9097,228.9809,97.4649,262.6692,0,U,49001,999,23948,.31308953E-3,.133E-5,0
ONEWEB-0284,2021-060AM,2026-06-16T05:50:00.061728,13.16594253,.00022307,87.9097,228.9603,105.3122,254.8255,0,U,49002,999,23947,.30375865E-3,.129E-5,0
ONEWEB-0285,2021-075A,2026-06-16T05:19:10.673184,13.12443100,.00017522,87.8946,350.8537,92.0077,268.1253,0,U,49075,999,23508,-.937527E-3,-.325E-5,0
ONEWEB-0286,2021-075B,2026-06-16T04:53:22.521696,13.12442294,.00019811,87.8936,350.8743,86.6694,273.4661,0,U,49076,999,23443,.58281273E-3,.222E-5,0
ONEWEB-0287,2021-075C,2026-06-16T06:07:48.117792,13.17649081,.000225,87.9133,6.0512,84.8523,275.2866,0,U,49077,999,23350,-.98388807E-4,-.25E-6,0
ONEWEB-0288,2021-075D,2026-06-16T06:09:12.067488,13.12444211,.0002033,87.8945,350.8405,92.6223,267.5138,0,U,49078,999,23506,.81122601E-3,.305E-5,0
ONEWEB-0289,2021-075E,2026-06-16T07:03:29.485728,13.17649552,.00018393,87.9137,6.0605,100.8556,259.2782,0,U,49079,999,23408,.31473699E-3,.135E-5,0
ONEWEB-0290,2021-075F,2026-06-16T06:24:49.382208,13.17648539,.00018244,87.9142,6.0377,104.6093,255.5241,0,U,49080,999,23349,-.81343757E-4,-.19E-6,0
ONEWEB-0291,2021-075G,2026-06-16T06:02:57.071616,13.17648811,.00021636,87.9136,6.0481,93.2680,266.8699,0,U,49081,999,23348,.24793426E-4,.23E-6,0
ONEWEB-0293,2021-075H,2026-06-16T06:39:23.303520,13.17647961,.00018955,87.9131,6.0464,93.0322,267.1027,0,U,49082,999,23351,.30171049E-4,.25E-6,0
ONEWEB-0294,2021-075J,2026-06-16T06:18:57.710016,13.12443930,.00018291,87.8947,350.8427,101.6124,258.5210,0,U,49083,999,23445,.9256717E-3,.346E-5,0
ONEWEB-0295,2021-075K,2026-06-16T06:38:10.735296,13.17648022,.00021925,87.9131,6.0507,89.8056,270.3326,0,U,49084,999,23347,-.31272546E-4,.1E-7,0
ONEWEB-0296,2021-075L,2026-06-16T05:49:40.426464,13.12444512,.00021472,87.8951,350.8541,94.0134,266.1241,0,U,49085,999,23445,-.56507759E-3,-.191E-5,0
ONEWEB-0297,2021-075M,2026-06-16T06:33:35.710272,13.12443298,.00019246,87.8936,350.8590,90.1750,269.9599,0,U,49086,999,23506,.10942477E-2,.406E-5,0
ONEWEB-0298,2021-075N,2026-06-16T06:44:27.118752,13.17647906,.0001922,87.9131,6.0479,84.5978,275.5373,0,U,49087,999,23350,-.7820557E-5,.1E-6,0
ONEWEB-0299,2021-075P,2026-06-16T06:46:41.176128,13.17649980,.00020292,87.9142,6.0277,86.6778,273.4585,0,U,49088,999,23348,.11131934E-3,.56E-6,0
ONEWEB-0300,2021-075Q,2026-06-16T06:22:36.601824,13.12444070,.00018399,87.8948,350.8398,78.5887,281.5448,0,U,49089,999,23508,.92156537E-3,.344E-5,0
ONEWEB-0301,2021-075R,2026-06-16T05:59:25.483200,13.12446002,.00016906,87.8946,350.8413,80.4836,279.6484,0,U,49090,999,23444,-.11587632E-4,.9E-7,0
ONEWEB-0302,2021-075S,2026-06-16T05:39:55.106208,13.12443565,.00019488,87.8949,350.8559,99.9545,260.1804,0,U,49091,999,23442,-.11310549E-2,-.394E-5,0
ONEWEB-0304,2021-075T,2026-06-16T06:10:13.978272,13.17649716,.00020183,87.9133,6.0552,88.1488,271.9875,0,U,49092,999,23345,-.8967494E-5,.9E-7,0
ONEWEB-0305,2021-075U,2026-06-16T06:00:30.945024,13.17649877,.00022441,87.9141,6.0407,86.3393,273.7995,0,U,49093,999,23348,-.32997653E-4,0,0
ONEWEB-0308,2021-075V,2026-06-16T05:30:09.296064,13.12443383,.00017851,87.8948,350.8490,90.5229,269.6104,0,U,49094,999,23443,-.11245311E-2,-.392E-5,0
