ONEWEB-0275             
1 48993U 21060AC  26167.16547669  .00000201  00000+0  49303-3 0  9992
2 48993  87.9099 228.9785 0001927  96.0299 264.1051 13.16594779239423
ONEWEB-0276             
1 48994U 21060AD  26167.19871916 -.00000017  00000+0 -78894-4 0  9996
2 48994  87.9096 228.9713 0001966  93.0320 267.1036 13.16594780239447
ONEWEB-0277             
1 48995U 21060AE  26167.21139454  .00000068  00000+0  14513-3 0  9995
2 48995  87.9090 228.9777 0001901 101.3530 258.7815 13.16593829239430
ONEWEB-0278             
1 48996U 21060AF  26167.20186865  .00000014  00000+0  31146-5 0  9997
2 48996  87.9099 228.9696 0002270 100.3504 259.7883 13.16592982239569
ONEWEB-0279             
1 48997U 21060AG  26167.20980476  .00000031  00000+0  48337-4 0  9996
2 48997  87.9097 228.9664 0001789  97.1474 262.9860 13.16594742239495
ONEWEB-0280             
1 48998U 21060AH  26167.22484030  .00000085  00000+0  18964-3 0  9995
2 48998  87.9096 228.9677 0002116 107.8108 252.3254 13.16593375239432
ONEWEB-0281             
1 48999U 21060AJ  26167.23038771  .00000117  00000+0  27223-3 0  9998
2 48999  87.9099 228.9617 0002094  98.6810 261.4558 13.16594832239507
ONEWEB-0282             
1 49000U 21060AK  26167.18445568  .00000050  00000+0  96973-4 0  9997
2 49000  87.9098 228.9792 0001968 101.4228 258.7124 13.16592802239478
ONEWEB-0283             
1 49001U 21060AL  26167.17338632  .00000133  00000+0  31309-3 0  9993
2 49001  87.9097 228.9809 0001856  97.4649 262.6692 13.16594492239486
ONEWEB-0284             
1 49002U 21060AM  26167.24305627  .00000129  00000+0  30376-3 0  9998
2 49002  87.9097 228.9603 0002230 105.3122 254.8255 13.16594253239473
ONEWEB-0285             
1 49075U 21075A   26167.22165131 -.00000325  00000+0 -93753-3 0  9994
2 49075  87.8946 350.8537 0001752  92.0077 268.1253 13.12443100235084
ONEWEB-0286             
1 49076U 21075B   26167.20373289  .00000222  00000+0  58281-3 0  9999
2 49076  87.8936 350.8743 0001981  86.6694 273.4661 13.12442294234434
ONEWEB-0287             
1 49077U 21075C   26167.25541803 -.00000025  00000+0 -98389-4 0  9991
2 49077  87.9133   6.0512 0002250  84.8523 275.2866 13.17649081233502
ONEWEB-0288             
1 49078U 21075D   26167.25638967  .00000305  00000+0  81123-3 0  9996
2 49078  87.8945 350.8405 0002033  92.6223 267.5138 13.12444211235069
ONEWEB-0289             
1 49079U 21075E   26167.29409127  .00000135  00000+0  31474-3 0  9990
2 49079  87.9137   6.0605 0001839 100.8556 259.2782 13.17649552234084
ONEWEB-0290             
1 49080U 21075F   26167.26723822 -.00000019  00000+0 -81344-4 0  9995
2 49080  87.9142   6.0377 0001824 104.6093 255.5241 13.17648539233497
ONEWEB-0291             
1 49081U 21075G   26167.25204944  .00000023  00000+0  24793-4 0  9992
2 49081  87.9136   6.0481 0002163  93.2680 266.8699 13.17648811233483
ONEWEB-0293             
1 49082U 21075H   26167.27735305  .00000025  00000+0  30171-4 0  9994
2 49082  87.9131   6.0464 0001895  93.0322 267.1027 13.17647961233510
ONEWEB-0294             
1 49083U 21075J   26167.26316794  .00000346  00000+0  92567-3 0  9993
2 49083  87.8947 350.8427 0001829 101.6124 258.5210 13.12443930234454
ONEWEB-0295             
1 49084U 21075K   26167.27651314  .00000001  00000+0 -31273-4 0  9992
2 49084  87.9131   6.0507 0002192  89.8056 270.3326 13.17648022233470
ONEWEB-0296             
1 49085U 21075L   26167.24282901 -.00000191  00000+0 -56508-3 0  9990
2 49085  87.8951 350.8541 0002147  94.0134 266.1241 13.12444512234454
ONEWEB-0297             
1 49086U 21075M   26167.27332998  .00000406  00000+0  10942-2 0  9994
2 49086  87.8936 350.8590 0001924  90.1750 269.9599 13.12443298235060
ONEWEB-0298             
1 49087U 21075N   26167.28086943  .00000010  00000+0 -78206-5 0  9994
2 49087  87.9131   6.0479 0001922  84.5978 275.5373 13.17647906233509
ONEWEB-0299             
1 49088U 21075P   26167.28242102  .00000056  00000+0  11132-3 0  9998
2 49088  87.9142   6.0277 0002029  86.6778 273.4585 13.17649980233481
ONEWEB-0300             
1 49089U 21075Q   26167.26570141  .00000344  00000+0  92157-3 0  9990
2 49089  87.8948 350.8398 0001839  78.5887 281.5448 13.12444070235082
ONEWEB-0301             
1 49090U 21075R   26167.24960050  .00000009  00000+0 -11588-4 0  9991
2 49090  87.8946 350.8413 0001690  80.4836 279.6484 13.12446002234445
ONEWEB-0302             
1 49091U 21075S   26167.23605447 -.00000394  00000+0 -11311-2 0  9997
2 49091  87.8949 350.8559 0001948  99.9545 260.1804 13.12443565234428
ONEWEB-0304             
1 49092U 21075T   26167.25710623  .00000009  00000+0 -89675-5 0  9996
2 49092  87.9133   6.0552 0002018  88.1488 271.9875 13.17649716233454
ONEWEB-0305             
1 49093U 21075U   26167.25035816  .00000000  00000+0 -32998-4 0  9997
2 49093  87.9141   6.0407 0002244  86.3393 273.7995 13.17649877233483
ONEWEB-0308             
1 49094U 21075V   26167.22927426 -.00000392  00000+0 -11245-2 0  9997
2 49094  87.8948 350.8490 0001785  90.5229 269.6104 13.12443383234435
